{
  "type": "FeatureCollection",
  "features": [
    {
      "type": "Feature",
      "properties": {
        "norad_id": 66921,
        "name": "HULIANWANG DIGUI-111",
        "group": "last-30-days",
        "lat": -6.210777563324928,
        "lon": 113.05447401169016,
        "alt_km": 872.0844289077213,
        "timestamp": "2025-12-12T11:38:30.172001+00:00",
        "meta_object_name": "HULIANWANG DIGUI-111",
        "meta_object_id": "2025-285G",
        "meta_epoch": "2025-12-12T04:51:22.616640",
        "meta_mean_motion": 14.05884657,
        "meta_eccentricity": 0.0006976,
        "meta_inclination": 50.0108,
        "meta_ra_of_asc_node": 119.4507,
        "meta_arg_of_pericenter": 293.2865,
        "meta_mean_anomaly": 66.7306,
        "meta_ephemeris_type": 0,
        "meta_classification_type": "U",
        "meta_norad_cat_id": 66921,
        "meta_element_set_no": 999,
        "meta_rev_at_epoch": 83,
        "meta_bstar": 0.00020838,
        "meta_mean_motion_dot": 1.91e-06,
        "meta_mean_motion_ddot": 0,
        "tle_line1": "1 66921U 25285G   25346.20234510  .00000191  00000+0  20838-3 0  9997",
        "tle_line2": "2 66921  50.0108 119.4507 0006976 293.2865  66.7306 14.05884657   837"
      },
      "geometry": {
        "type": "Point",
        "coordinates": [
          113.05447401169016,
          -6.210777563324928
        ]
      }
    },
    {
      "type": "Feature",
      "properties": {
        "norad_id": 66922,
        "name": "HULIANWANG DIGUI-112",
        "group": "last-30-days",
        "lat": -4.288958183890085,
        "lon": 114.6770228141752,
        "alt_km": 871.1935632822051,
        "timestamp": "2025-12-12T11:38:30.172011+00:00",
        "meta_object_name": "HULIANWANG DIGUI-112",
        "meta_object_id": "2025-285H",
        "meta_epoch": "2025-12-12T04:50:41.709696",
        "meta_mean_motion": 14.05999845,
        "meta_eccentricity": 0.0006948,
        "meta_inclination": 50.0083,
        "meta_ra_of_asc_node": 119.4441,
        "meta_arg_of_pericenter": 299.5839,
        "meta_mean_anomaly": 60.4374,
        "meta_ephemeris_type": 0,
        "meta_classification_type": "U",
        "meta_norad_cat_id": 66922,
        "meta_element_set_no": 999,
        "meta_rev_at_epoch": 83,
        "meta_bstar": 2.9235e-06,
        "meta_mean_motion_dot": -1.47e-06,
        "meta_mean_motion_ddot": 0,
        "tle_line1": "1 66922U 25285H   25346.20187164 -.00000147  00000+0  29235-5 0  9994",
        "tle_line2": "2 66922  50.0083 119.4441 0006948 299.5839  60.4374 14.05999845   838"
      },
      "geometry": {
        "type": "Point",
        "coordinates": [
          114.6770228141752,
          -4.288958183890085
        ]
      }
    },
    {
      "type": "Feature",
      "properties": {
        "norad_id": 66923,
        "name": "HULIANWANG DIGUI-113",
        "group": "last-30-days",
        "lat": -3.3054837298202444,
        "lon": 115.50595123590175,
        "alt_km": 871.9056334725756,
        "timestamp": "2025-12-12T11:38:30.172023+00:00",
        "meta_object_name": "HULIANWANG DIGUI-113",
        "meta_object_id": "2025-285J",
        "meta_epoch": "2025-12-12T04:50:20.795712",
        "meta_mean_motion": 14.06056158,
        "meta_eccentricity": 0.0005401,
        "meta_inclination": 50.008,
        "meta_ra_of_asc_node": 119.4437,
        "meta_arg_of_pericenter": 294.4802,
        "meta_mean_anomaly": 65.554,
        "meta_ephemeris_type": 0,
        "meta_classification_type": "U",
        "meta_norad_cat_id": 66923,
        "meta_element_set_no": 999,
        "meta_rev_at_epoch": 83,
        "meta_bstar": 0.00020095,
        "meta_mean_motion_dot": 1.79e-06,
        "meta_mean_motion_ddot": 0,
        "tle_line1": "1 66923U 25285J   25346.20162958  .00000179  00000+0  20095-3 0  9996",
        "tle_line2": "2 66923  50.0080 119.4437 0005401 294.4802  65.5540 14.06056158   831"
      },
      "geometry": {
        "type": "Point",
        "coordinates": [
          115.50595123590175,
          -3.3054837298202444
        ]
      }
    },
    {
      "type": "Feature",
      "properties": {
        "norad_id": 66924,
        "name": "CZ-8A R/B",
        "group": "last-30-days",
        "lat": 3.9909109232482294,
        "lon": -66.12002716446887,
        "alt_km": 758.318684975532,
        "timestamp": "2025-12-12T11:38:30.172034+00:00",
        "meta_object_name": "CZ-8A R/B",
        "meta_object_id": "2025-285K",
        "meta_epoch": "2025-12-11T18:04:29.351136",
        "meta_mean_motion": 14.3050121,
        "meta_eccentricity": 0.01193225,
        "meta_inclination": 50.0063,
        "meta_ra_of_asc_node": 120.3543,
        "meta_arg_of_pericenter": 103.2592,
        "meta_mean_anomaly": 258.1664,
        "meta_ephemeris_type": 0,
        "meta_classification_type": "U",
        "meta_norad_cat_id": 66924,
        "meta_element_set_no": 999,
        "meta_rev_at_epoch": 78,
        "meta_bstar": 9.6804415e-05,
        "meta_mean_motion_dot": 1.07e-06,
        "meta_mean_motion_ddot": 0,
        "tle_line1": "1 66924U 25285K   25345.75311749  .00000107  00000+0  96804-4 0  9993",
        "tle_line2": "2 66924  50.0063 120.3543 0119322 103.2592 258.1664 14.30501210   785"
      },
      "geometry": {
        "type": "Point",
        "coordinates": [
          -66.12002716446887,
          3.9909109232482294
        ]
      }
    },
    {
      "type": "Feature",
      "properties": {
        "norad_id": 66953,
        "name": "HULIANWANG DIGUI-114",
        "group": "last-30-days",
        "lat": 17.23802219540741,
        "lon": -12.66236364839409,
        "alt_km": 1011.0087850702785,
        "timestamp": "2025-12-12T11:38:30.172044+00:00",
        "meta_object_name": "HULIANWANG DIGUI-114",
        "meta_object_id": "2025-287A",
        "meta_epoch": "2025-12-11T05:43:48.442368",
        "meta_mean_motion": 13.68688345,
        "meta_eccentricity": 0.00085506,
        "meta_inclination": 86.4966,
        "meta_ra_of_asc_node": 346.7027,
        "meta_arg_of_pericenter": 209.4482,
        "meta_mean_anomaly": 150.6197,
        "meta_ephemeris_type": 0,
        "meta_classification_type": "U",
        "meta_norad_cat_id": 66953,
        "meta_element_set_no": 999,
        "meta_rev_at_epoch": 32,
        "meta_bstar": 1.3583638e-05,
        "meta_mean_motion_dot": 2.8e-07,
        "meta_mean_motion_ddot": 0,
        "tle_line1": "1 66953U 25287A   25345.23875512  .00000028  00000+0  13584-4 0  9999",
        "tle_line2": "2 66953  86.4966 346.7027 0008550 209.4482 150.6197 13.68688345   322"
      },
      "geometry": {
        "type": "Point",
        "coordinates": [
          -12.66236364839409,
          17.23802219540741
        ]
      }
    },
    {
      "type": "Feature",
      "properties": {
        "norad_id": 66954,
        "name": "HULIANWANG DIGUI-115",
        "group": "last-30-days",
        "lat": 18.496503950787037,
        "lon": -12.574108622213156,
        "alt_km": 1010.4506914057829,
        "timestamp": "2025-12-12T11:38:30.172056+00:00",
        "meta_object_name": "HULIANWANG DIGUI-115",
        "meta_object_id": "2025-287B",
        "meta_epoch": "2025-12-11T23:16:13.382976",
        "meta_mean_motion": 13.6879142,
        "meta_eccentricity": 0.000852,
        "meta_inclination": 86.4972,
        "meta_ra_of_asc_node": 346.4397,
        "meta_arg_of_pericenter": 206.5089,
        "meta_mean_anomaly": 153.5636,
        "meta_ephemeris_type": 0,
        "meta_classification_type": "U",
        "meta_norad_cat_id": 66954,
        "meta_element_set_no": 999,
        "meta_rev_at_epoch": 42,
        "meta_bstar": 1.9300231e-05,
        "meta_mean_motion_dot": 3.3e-07,
        "meta_mean_motion_ddot": 0,
        "tle_line1": "1 66954U 25287B   25345.96959934  .00000033  00000+0  19300-4 0  9999",
        "tle_line2": "2 66954  86.4972 346.4397 0008520 206.5089 153.5636 13.68791420   425"
      },
      "geometry": {
        "type": "Point",
        "coordinates": [
          -12.574108622213156,
          18.496503950787037
        ]
      }
    },
    {
      "type": "Feature",
      "properties": {
        "norad_id": 66955,
        "name": "HULIANWANG DIGUI-116",
        "group": "last-30-days",
        "lat": 19.918186695435097,
        "lon": -12.482042717366621,
        "alt_km": 1009.4154909462713,
        "timestamp": "2025-12-12T11:38:30.172068+00:00",
        "meta_object_name": "HULIANWANG DIGUI-116",
        "meta_object_id": "2025-287C",
        "meta_epoch": "2025-12-11T23:15:52.024896",
        "meta_mean_motion": 13.68903017,
        "meta_eccentricity": 0.00079105,
        "meta_inclination": 86.4907,
        "meta_ra_of_asc_node": 346.4322,
        "meta_arg_of_pericenter": 200.5436,
        "meta_mean_anomaly": 159.5406,
        "meta_ephemeris_type": 0,
        "meta_classification_type": "U",
        "meta_norad_cat_id": 66955,
        "meta_element_set_no": 999,
        "meta_rev_at_epoch": 42,
        "meta_bstar": 1.9446524e-05,
        "meta_mean_motion_dot": 3.3e-07,
        "meta_mean_motion_ddot": 0,
        "tle_line1": "1 66955U 25287C   25345.96935214  .00000033  00000+0  19447-4 0  9997",
        "tle_line2": "2 66955  86.4907 346.4322 0007910 200.5436 159.5406 13.68903017   422"
      },
      "geometry": {
        "type": "Point",
        "coordinates": [
          -12.482042717366621,
          19.918186695435097
        ]
      }
    }
  ]
}